SIRIUS-1                
1 26390U 00035A   13238.72141434  .00000046  00000-0  00000+0 0  2218
2 26390  60.2228 242.7366 2681749 269.9699 346.1104  1.00273826 48199
SIRIUS-2                
1 26483U 00051A   13241.14338937 -.00000025  00000-0  00000+0 0  8534
2 26483  64.0910 122.6717 2664097 270.8246 258.4149  1.00280624 47551
SIRIUS-3                
1 26626U 00077A   13240.80580025 -.00000155  00000-0  00000+0 0  1773
2 26626  64.4389   2.4410 2679445 269.4157 260.2438  1.00286127 46686
XM-2 (ROCK)             
1 26724U 01012A   13240.38331697 -.00000044  00000-0  10000-3 0  5950
2 26724   0.1970 281.0068 0003496  22.0695  56.4242  1.00273233 45666
XM-1 (ROLL)             
1 26761U 01018A   13241.33005038 -.00000042  00000-0  10000-3 0  4520
2 26761   0.2063 265.3951 0003767 317.6553 118.2020  1.00272812 45140
XM-3 (RHYTHM)           
1 28626U 05008A   13241.34064891 -.00000225  00000-0  10000-3 0  4431
2 28626   0.0109 256.5695 0000411  83.0225  35.6426  1.00272344 31193
XM-4 (BLUES)            
1 29520U 06049A   13239.37015662 -.00000044  00000-0  10000-3 0   944
2 29520   0.0180   9.7934 0000053  84.9801 259.0043  1.00271820 25101
O3B FM5                 
1 39188U 13031A   13240.65470493 -.00000033  00000-0  00000+0 0   295
2 39188   0.0333 346.0389 0001832 148.6585 225.3164  5.00115181  3204
O3B FM4                 
1 39189U 13031B   13233.20844584 -.00000031  00000-0  10000-3 0   209
2 39189   0.0298 338.9752 0001598  60.7041 320.3289  5.00119098  2832
O3B FM2                 
1 39190U 13031C   13234.50806682 -.00000031  00000-0  10000-3 0   178
2 39190   0.0351 355.6434 0002082 145.3610 219.0078  5.00114316  2892
O3B PFM                 
1 39191U 13031D   13236.45699818 -.00000032  00000-0  00000+0 0   239
2 39191   0.0321 341.0619 0001853 148.1436 230.8084  5.00115339  2991
